CCSDS_OMM_VERS = 2.0
CREATION_DATE  = 
ORIGINATOR     = 

OBJECT_NAME    = SL-14 R/B
OBJECT_ID      = 1991-042B
CENTER_NAME    = EARTH
REF_FRAME      = TEME
TIME_SYSTEM    = UTC
MEAN_ELEMENT_THEORY = SGP/SGP4

EPOCH          = 2026-02-11T15:00:03.556224
MEAN_MOTION    = 14.81803855
ECCENTRICITY   = .00163453
INCLINATION    = 82.4898
RA_OF_ASC_NODE = 244.6293
ARG_OF_PERICENTER = 331.4813
MEAN_ANOMALY   = 28.5505

EPHEMERIS_TYPE = 0
CLASSIFICATION_TYPE = U
NORAD_CAT_ID   = 21423
ELEMENT_SET_NO = 999
REV_AT_EPOCH   = 84921
BSTAR          = .49370056E-4
MEAN_MOTION_DOT = .414E-5
MEAN_MOTION_DDOT = 0

CCSDS_OMM_VERS = 2.0
CREATION_DATE  = 
ORIGINATOR     = 

OBJECT_NAME    = ERS-1
OBJECT_ID      = 1991-050A
CENTER_NAME    = EARTH
REF_FRAME      = TEME
TIME_SYSTEM    = UTC
MEAN_ELEMENT_THEORY = SGP/SGP4

EPOCH          = 2026-02-11T13:27:52.687008
MEAN_MOTION    = 14.39427930
ECCENTRICITY   = .00309068
INCLINATION    = 98.7895
RA_OF_ASC_NODE = 60.1385
ARG_OF_PERICENTER = 280.1729
MEAN_ANOMALY   = 79.5973

EPHEMERIS_TYPE = 0
CLASSIFICATION_TYPE = U
NORAD_CAT_ID   = 21574
ELEMENT_SET_NO = 999
REV_AT_EPOCH   = 81197
BSTAR          = .13651999E-3
MEAN_MOTION_DOT = .38E-5
MEAN_MOTION_DDOT = 0

CCSDS_OMM_VERS = 2.0
CREATION_DATE  = 
ORIGINATOR     = 

OBJECT_NAME    = ARIANE 40 R/B
OBJECT_ID      = 1991-050F
CENTER_NAME    = EARTH
REF_FRAME      = TEME
TIME_SYSTEM    = UTC
MEAN_ELEMENT_THEORY = SGP/SGP4

EPOCH          = 2026-02-11T14:30:51.184512
MEAN_MOTION    = 14.42874121
ECCENTRICITY   = .00039285
INCLINATION    = 98.2070
RA_OF_ASC_NODE = 95.8131
ARG_OF_PERICENTER = 138.5580
MEAN_ANOMALY   = 221.5909

EPHEMERIS_TYPE = 0
CLASSIFICATION_TYPE = U
NORAD_CAT_ID   = 21610
ELEMENT_SET_NO = 999
REV_AT_EPOCH   = 81523
BSTAR          = .10861078E-3
MEAN_MOTION_DOT = .321E-5
MEAN_MOTION_DDOT = 0

CCSDS_OMM_VERS = 2.0
CREATION_DATE  = 
ORIGINATOR     = 

OBJECT_NAME    = INTERCOSMOS 25
OBJECT_ID      = 1991-086A
CENTER_NAME    = EARTH
REF_FRAME      = TEME
TIME_SYSTEM    = UTC
MEAN_ELEMENT_THEORY = SGP/SGP4

EPOCH          = 2026-02-11T05:42:42.770592
MEAN_MOTION    = 12.11926205
ECCENTRICITY   = .14868353
INCLINATION    = 82.6086
RA_OF_ASC_NODE = 325.9924
ARG_OF_PERICENTER = 173.9171
MEAN_ANOMALY   = 188.2460

EPHEMERIS_TYPE = 0
CLASSIFICATION_TYPE = U
NORAD_CAT_ID   = 21819
ELEMENT_SET_NO = 999
REV_AT_EPOCH   = 49348
BSTAR          = .31038899E-3
MEAN_MOTION_DOT = .1599E-4
MEAN_MOTION_DDOT = 0

CCSDS_OMM_VERS = 2.0
CREATION_DATE  = 
ORIGINATOR     = 

OBJECT_NAME    = SL-8 R/B
OBJECT_ID      = 1992-008B
CENTER_NAME    = EARTH
REF_FRAME      = TEME
TIME_SYSTEM    = UTC
MEAN_ELEMENT_THEORY = SGP/SGP4

EPOCH          = 2026-02-11T14:47:54.119904
MEAN_MOTION    = 13.75969669
ECCENTRICITY   = .00339536
INCLINATION    = 82.9259
RA_OF_ASC_NODE = 287.1754
ARG_OF_PERICENTER = 205.6664
MEAN_ANOMALY   = 216.4458

EPHEMERIS_TYPE = 0
CLASSIFICATION_TYPE = U
NORAD_CAT_ID   = 21876
ELEMENT_SET_NO = 999
REV_AT_EPOCH   = 70583
BSTAR          = .1287988E-4
MEAN_MOTION_DOT = .28E-6
MEAN_MOTION_DDOT = 0

CCSDS_OMM_VERS = 2.0
CREATION_DATE  = 
ORIGINATOR     = 

OBJECT_NAME    = SL-8 R/B
OBJECT_ID      = 1992-020B
CENTER_NAME    = EARTH
REF_FRAME      = TEME
TIME_SYSTEM    = UTC
MEAN_ELEMENT_THEORY = SGP/SGP4

EPOCH          = 2026-02-11T08:29:53.082240
MEAN_MOTION    = 13.75545782
ECCENTRICITY   = .00291347
INCLINATION    = 82.9334
RA_OF_ASC_NODE = 173.3087
ARG_OF_PERICENTER = 13.9863
MEAN_ANOMALY   = 14.9657

EPHEMERIS_TYPE = 0
CLASSIFICATION_TYPE = U
NORAD_CAT_ID   = 21938
ELEMENT_SET_NO = 999
REV_AT_EPOCH   = 69751
BSTAR          = .11716262E-3
MEAN_MOTION_DOT = .128E-5
MEAN_MOTION_DDOT = 0

CCSDS_OMM_VERS = 2.0
CREATION_DATE  = 
ORIGINATOR     = 

OBJECT_NAME    = USA 81
OBJECT_ID      = 1992-023A
CENTER_NAME    = EARTH
REF_FRAME      = TEME
TIME_SYSTEM    = UTC
MEAN_ELEMENT_THEORY = SGP/SGP4

EPOCH          = 2026-02-11T06:03:35.531712
MEAN_MOTION    = 14.32358373
ECCENTRICITY   = .00026813
INCLINATION    = 85.0120
RA_OF_ASC_NODE = 146.6854
ARG_OF_PERICENTER = 101.4504
MEAN_ANOMALY   = 258.6990

EPHEMERIS_TYPE = 0
CLASSIFICATION_TYPE = U
NORAD_CAT_ID   = 21949
ELEMENT_SET_NO = 999
REV_AT_EPOCH   = 9100
BSTAR          = .76784368E-4
MEAN_MOTION_DOT = .227E-5
MEAN_MOTION_DDOT = 0

CCSDS_OMM_VERS = 2.0
CREATION_DATE  = 
ORIGINATOR     = 

OBJECT_NAME    = COSMOS 2219
OBJECT_ID      = 1992-076A
CENTER_NAME    = EARTH
REF_FRAME      = TEME
TIME_SYSTEM    = UTC
MEAN_ELEMENT_THEORY = SGP/SGP4

EPOCH          = 2026-02-11T13:26:23.159328
MEAN_MOTION    = 14.14076605
ECCENTRICITY   = .00201974
INCLINATION    = 71.0580
RA_OF_ASC_NODE = 72.6945
ARG_OF_PERICENTER = 242.7133
MEAN_ANOMALY   = 117.1933

EPHEMERIS_TYPE = 0
CLASSIFICATION_TYPE = U
NORAD_CAT_ID   = 22219
ELEMENT_SET_NO = 999
REV_AT_EPOCH   = 71468
BSTAR          = .26771881E-4
MEAN_MOTION_DOT = .4E-7
MEAN_MOTION_DDOT = 0

CCSDS_OMM_VERS = 2.0
CREATION_DATE  = 
ORIGINATOR     = 

OBJECT_NAME    = SL-16 R/B
OBJECT_ID      = 1992-076B
CENTER_NAME    = EARTH
REF_FRAME      = TEME
TIME_SYSTEM    = UTC
MEAN_ELEMENT_THEORY = SGP/SGP4

EPOCH          = 2026-02-11T15:30:22.524192
MEAN_MOTION    = 14.16855979
ECCENTRICITY   = .0011365
INCLINATION    = 70.9978
RA_OF_ASC_NODE = 243.2343
ARG_OF_PERICENTER = 143.2155
MEAN_ANOMALY   = 282.3134

EPHEMERIS_TYPE = 0
CLASSIFICATION_TYPE = U
NORAD_CAT_ID   = 22220
ELEMENT_SET_NO = 999
REV_AT_EPOCH   = 71814
BSTAR          = -.22720052E-4
MEAN_MOTION_DOT = -.93E-6
MEAN_MOTION_DDOT = 0

CCSDS_OMM_VERS = 2.0
CREATION_DATE  = 
ORIGINATOR     = 

OBJECT_NAME    = COSMOS 2221
OBJECT_ID      = 1992-080A
CENTER_NAME    = EARTH
REF_FRAME      = TEME
TIME_SYSTEM    = UTC
MEAN_ELEMENT_THEORY = SGP/SGP4

EPOCH          = 2026-02-11T02:03:44.014176
MEAN_MOTION    = 14.96095550
ECCENTRICITY   = .00128245
INCLINATION    = 82.5053
RA_OF_ASC_NODE = 304.5604
ARG_OF_PERICENTER = 284.7458
MEAN_ANOMALY   = 75.2343

EPHEMERIS_TYPE = 0
CLASSIFICATION_TYPE = U
NORAD_CAT_ID   = 22236
ELEMENT_SET_NO = 999
REV_AT_EPOCH   = 77681
BSTAR          = .18182111E-3
MEAN_MOTION_DOT = .2072E-4
MEAN_MOTION_DDOT = 0

CCSDS_OMM_VERS = 2.0
CREATION_DATE  = 
ORIGINATOR     = 

OBJECT_NAME    = SL-16 R/B
OBJECT_ID      = 1992-093B
CENTER_NAME    = EARTH
REF_FRAME      = TEME
TIME_SYSTEM    = UTC
MEAN_ELEMENT_THEORY = SGP/SGP4

EPOCH          = 2026-02-11T10:48:16.381440
MEAN_MOTION    = 14.15441298
ECCENTRICITY   = .00052183
INCLINATION    = 71.0200
RA_OF_ASC_NODE = 59.3506
ARG_OF_PERICENTER = 321.5655
MEAN_ANOMALY   = 38.5095

EPHEMERIS_TYPE = 0
CLASSIFICATION_TYPE = U
NORAD_CAT_ID   = 22285
ELEMENT_SET_NO = 999
REV_AT_EPOCH   = 70944
BSTAR          = .66791245E-4
MEAN_MOTION_DOT = .83E-6
MEAN_MOTION_DDOT = 0

CCSDS_OMM_VERS = 2.0
CREATION_DATE  = 
ORIGINATOR     = 

OBJECT_NAME    = COSMOS 2228
OBJECT_ID      = 1992-094A
CENTER_NAME    = EARTH
REF_FRAME      = TEME
TIME_SYSTEM    = UTC
MEAN_ELEMENT_THEORY = SGP/SGP4

EPOCH          = 2026-02-11T14:06:04.968864
MEAN_MOTION    = 14.97068086
ECCENTRICITY   = .00188859
INCLINATION    = 82.5155
RA_OF_ASC_NODE = 262.3061
ARG_OF_PERICENTER = 33.7442
MEAN_ANOMALY   = 326.4978

EPHEMERIS_TYPE = 0
CLASSIFICATION_TYPE = U
NORAD_CAT_ID   = 22286
ELEMENT_SET_NO = 999
REV_AT_EPOCH   = 77215
BSTAR          = .14613815E-3
MEAN_MOTION_DOT = .1716E-4
MEAN_MOTION_DDOT = 0

