SL-14 R/B               
1 21423U 91042B   26042.62504116  .00000414  00000+0  49370-4 0  9992
2 21423  82.4898 244.6293 0016345 331.4813  28.5505 14.81803855849217
ERS-1                   
1 21574U 91050A   26042.56102647  .00000380  00000+0  13652-3 0  9999
2 21574  98.7895  60.1385 0030906 280.1729  79.5973 14.39427930811975
ARIANE 40 R/B           
1 21610U 91050F   26042.60475908  .00000321  00000+0  10861-3 0  9992
2 21610  98.2070  95.8131 0003928 138.5580 221.5909 14.42874121815238
INTERCOSMOS 25          
1 21819U 91086A   26042.23799503  .00001599  00000+0  31039-3 0  9999
2 21819  82.6086 325.9924 1486835 173.9171 188.2460 12.11926205493487
SL-8 R/B                
1 21876U 92008B   26042.61659861  .00000028  00000+0  12880-4 0  9991
2 21876  82.9259 287.1754 0033953 205.6664 216.4458 13.75969669705831
SL-8 R/B                
1 21938U 92020B   26042.35408660  .00000128  00000+0  11716-3 0  9991
2 21938  82.9334 173.3087 0029134  13.9863  14.9657 13.75545782697519
USA 81                  
1 21949U 92023A   26042.25249458  .00000227  00000+0  76784-4 0  9990
2 21949  85.0120 146.6854 0002681 101.4504 258.6990 14.32358373 91007
COSMOS 2219             
1 22219U 92076A   26042.55999027  .00000004  00000+0  26772-4 0  9991
2 22219  71.0580  72.6945 0020197 242.7133 117.1933 14.14076605714688
SL-16 R/B               
1 22220U 92076B   26042.64609403 -.00000093  00000+0 -22720-4 0  9998
2 22220  70.9978 243.2343 0011365 143.2155 282.3134 14.16855979718147
COSMOS 2221             
1 22236U 92080A   26042.08592609  .00002072  00000+0  18182-3 0  9990
2 22236  82.5053 304.5604 0012824 284.7458  75.2343 14.96095550776814
SL-16 R/B               
1 22285U 92093B   26042.45018960  .00000083  00000+0  66791-4 0  9992
2 22285  71.0200  59.3506 0005218 321.5655  38.5095 14.15441298709445
COSMOS 2228             
1 22286U 92094A   26042.58755751  .00001716  00000+0  14614-3 0  9994
2 22286  82.5155 262.3061 0018885  33.7442 326.4978 14.97068086772151
